GLOBALSTAR M068         
1 32266U 07048D   24221.89919417 -.00000083  00000+0  11371-3 0  9994
2 32266  51.9870 174.1942 0000697 152.1352 242.5524 12.62795807778104
GLOBALSTAR M079         
1 37188U 10054A   24221.81547648 -.00000102  00000+0  12549-4 0  9999
2 37188  52.0059  10.6955 0000673  77.9787  71.7753 12.62262114637000
GLOBALSTAR M074         
1 37189U 10054B   24221.92714274 -.00000095  00000+0  49758-4 0  9996
2 37189  52.0038   9.7264 0000838  95.4938  81.8401 12.62270959637699
GLOBALSTAR M076         
1 37190U 10054C   24222.19001543 -.00000088  00000+0  90600-4 0  9990
2 37190  52.0050   9.0707 0001024  73.0112  98.3732 12.62254844637734
GLOBALSTAR M077         
1 37191U 10054D   24222.53774006 -.00000066  00000+0  21144-3 0  9992
2 37191  52.0095 324.7795 0000698 113.1759 259.8672 12.62262026638523
GLOBALSTAR M075         
1 37192U 10054E   24221.87225088 -.00000095  00000+0  46444-4 0  9993
2 37192  51.9952  52.4674 0000752  77.8167  29.5887 12.62262472636562
GLOBALSTAR M073         
1 37193U 10054F   24221.63491517 -.00000077  00000+0  14710-3 0  9990
2 37193  52.0081 326.7734 0000721  99.2894   8.3169 12.62267605638364
GLOBALSTAR M083         
1 37739U 11033A   24221.65500719 -.00000082  00000+0  12061-3 0  9994
2 37739  51.9851 275.8702 0000252 151.0574 349.3574 12.62263389607744
GLOBALSTAR M088         
1 37740U 11033B   24221.92221771 -.00000103  00000+0  27219-5 0  9991
2 37740  51.9715 180.8065 0000242 359.1673  36.5030 12.62265813603250
GLOBALSTAR M091         
1 37741U 11033C   24222.51991542 -.00000076  00000+0  15748-3 0  9999
2 37741  51.9991 141.9867 0000341   8.4568 162.8756 12.62265350604088
GLOBALSTAR M085         
1 37742U 11033D   24221.85304073 -.00000072  00000+0  17584-3 0  9999
2 37742  51.9865  95.3302 0000513  51.2716  29.6123 12.62264269604252
GLOBALSTAR M081         
1 37743U 11033E   24221.96344503 -.00000062  00000+0  23202-3 0  9997
2 37743  51.9958  97.5889 0000702  35.4189  66.9347 12.62267700604411
GLOBALSTAR M089         
1 37744U 11033F   24221.93354431 -.00000092  00000+0  66488-4 0  9993
2 37744  51.9936  51.9681 0001136  72.0500  72.8436 12.62266809605255
GLOBALSTAR M084         
1 38040U 11080A   24222.47175999 -.00000081  00000+0  12773-3 0  9990
2 38040  52.0000 277.4527 0000694 110.2835 262.6954 12.62265390583586
GLOBALSTAR M080         
1 38041U 11080B   24221.92596476 -.00000081  00000+0  12950-3 0  9994
2 38041  52.0058 280.6113 0000700  87.7700  83.9957 12.62263700583359
GLOBALSTAR M082         
1 38042U 11080C   24221.61906174 -.00000100  00000+0  23099-4 0  9990
2 38042  52.0050 236.9572 0000512 204.7804 311.6838 12.62264905584024
GLOBALSTAR M092         
1 38043U 11080D   24221.82904314 -.00000077  00000+0  15107-3 0  9991
2 38043  52.0107 326.6778 0000793 112.9768  38.3246 12.62264766582505
GLOBALSTAR M090         
1 38044U 11080E   24221.56507126 -.00000102  00000+0  11556-4 0  9997
2 38044  51.9859 231.3329 0000223 197.7697 312.9358 12.62265899584170
GLOBALSTAR M086         
1 38045U 11080F   24221.59183524 -.00000100  00000+0  18883-4 0  9991
2 38045  51.9870 231.7771 0000840 353.9154 159.2159 12.62265259584180
GLOBALSTAR M097         
1 39072U 13005A   24221.90181620 -.00000083  00000+0  11400-3 0  9998
2 39072  52.0037 145.0645 0000442  15.2772 344.8108 12.62269183531376
GLOBALSTAR M093         
1 39073U 13005B   24222.19154326 -.00000071  00000+0  18238-3 0  9997
2 39073  51.9805 137.9811 0000530   7.9960 352.0915 12.62276619531489
GLOBALSTAR M094         
1 39074U 13005C   24221.87494124 -.00000093  00000+0  60079-4 0  9990
2 39074  51.9965  53.0151 0000639  60.6106 299.4825 12.62266672532933
GLOBALSTAR M096         
1 39075U 13005D   24221.96738677 -.00000066  00000+0  20837-3 0  9992
2 39075  52.0068 101.0058 0000505  30.8622 329.2274 12.62268500531867
GLOBALSTAR M078         
1 39076U 13005E   24222.17853150 -.00000104  00000+0 -36938-5 0  9996
2 39076  51.9853 185.2964 0000727 195.7022 164.3822 12.62273521530729
GLOBALSTAR M095         
1 39077U 13005F   24222.44234978 -.00000092  00000+0  63178-4 0  9998
2 39077  51.9781 181.8435 0000414 264.3869  95.6950 12.62262889530767
GLOBALSTAR M087         
1 52888U 22064A   24221.86300375 -.00000086  00000+0  81009-4 0  9994
2 52888  51.9772  24.7017 0009975 134.8383 225.3330 13.37580543104579
